[{"OBJECT_NAME":"STARLINK-5601","OBJECT_ID":"2023-028D","EPOCH":"2026-03-09T22:28:59.818080","MEAN_MOTION":14.98315177,"ECCENTRICITY":0.00030521,"INCLINATION":69.9992,"RA_OF_ASC_NODE":243.9721,"ARG_OF_PERICENTER":268.1549,"MEAN_ANOMALY":91.9261,"EPHEMERIS_TYPE":0,"CLASSIFICATION_TYPE":"U","NORAD_CAT_ID":55744,"ELEMENT_SET_NO":999,"REV_AT_EPOCH":16607,"BSTAR":-0.00019839719,"MEAN_MOTION_DOT":-2.459e-5,"MEAN_MOTION_DDOT":0},{"OBJECT_NAME":"SHIYAN-24C 03","OBJECT_ID":"2023-206C","EPOCH":"2026-03-09T21:23:43.281888","MEAN_MOTION":14.97896938,"ECCENTRICITY":0.0002411,"INCLINATION":97.3969,"RA_OF_ASC_NODE":41.7507,"ARG_OF_PERICENTER":66.6237,"MEAN_ANOMALY":293.524,"EPHEMERIS_TYPE":0,"CLASSIFICATION_TYPE":"U","NORAD_CAT_ID":58652,"ELEMENT_SET_NO":999,"REV_AT_EPOCH":12043,"BSTAR":0.00011928,"MEAN_MOTION_DOT":1.35e-5,"MEAN_MOTION_DDOT":0}]
